IRIDIUM 144             
1 43249U 18030A   25355.53017832  .00000151  00000+0  47023-4 0  9999
2 43249  86.3962   4.6698 0002348  92.7547 267.3917 14.34218787404673
IRIDIUM 149             
1 43250U 18030B   25355.53652095  .00000000  00000+0 -72223-5 0  9992
2 43250  86.3962   4.6363 0002244  91.9940 268.1513 14.34217727404693
IRIDIUM 157             
1 43251U 18030C   25355.48578091  .00000229  00000+0  74658-4 0  9995
2 43251  86.3965   4.7066 0002156  87.6523 272.4919 14.34218946404668
IRIDIUM 140             
1 43252U 18030D   25355.50480864  .00000122  00000+0  36445-4 0  9993
2 43252  86.3967   4.7116 0002295  92.1131 268.0328 14.34217621404728
IRIDIUM 145             
1 43253U 18030E   25355.56189225  .00000226  00000+0  73499-4 0  9992
2 43253  86.3964   4.6604 0002584  91.5529 268.5963 14.34217907404662
IRIDIUM 146             
1 43254U 18030F   25355.05449359  .00000212  00000+0  68510-4 0  9997
2 43254  86.3964   4.8854 0002415  91.2870 268.8603 14.34215360404600
IRIDIUM 148             
1 43255U 18030G   25355.51115075  .00000159  00000+0  49829-4 0  9996
2 43255  86.3966   4.7349 0002204  88.2190 271.9258 14.34218576404702
IRIDIUM 142             
1 43256U 18030H   25355.54920699  .00000063  00000+0  15501-4 0  9990
2 43256  86.3960   4.6145 0002602  91.6380 268.5114 14.34218168404677
